#dP2022  6 16 12  0  0.00000000      96 __u+U ITR00 EXT  IAC
## 2214 388800.00000000   900.00000000 59746 0.5000000000000
+  116   C06C07C08C09C10C11C12C13C14C16C19C20C21C22C23C24C25
+        C26C27C28C29C30C32C33C34C35C36C37C38C39C40C41C42C43
+        C44C45C46E01E02E03E04E05E07E08E09E10E11E12E13E14E15
+        E18E19E21E24E25E26E27E30E31E33E34E36G01G02G03G04G05
+        G06G07G08G09G10G11G12G13G14G15G16G17G18G19G20G21G22
+        G23G24G25G26G27G28G29G30G31G32J02J03R01R02R03R04R05
+        R07R08R09R11R12R13R14R15R17R18R19R20R21R24  0  0  0
++        11 13  9  8 10  8  7  9  9 11  9 10  9  8  9  9  7
++         9  8  9 10  8  8  8  7  8 10  9  9  8  8  8  8  8
++         9  8  8  8  7  7  8  8  8  8  9  9  7  8  6  8  9
++         8  8  8  8  8  8  8  8  8  9  7  7  7  7  8  9  9
++         7  8  8  8  8  7  7  8  6  8  8  7  8  8  9  7  8
++         8  8  8  8  8  8  9  8  8  7  8  9  9  9  8  8  9
++         9  9  8  8  9  9  8  8  8  9  9  8  9  7  0  0  0
%c M  cc GPS ccc cccc cccc cccc cccc ccccc ccccc ccccc ccccc
%c cc cc ccc ccc cccc cccc cccc cccc ccccc ccccc ccccc ccccc
%f  0.0000000  0.000000000  0.00000000000  0.000000000000000
%f  0.0000000  0.000000000  0.00000000000  0.000000000000000
%i    0    0    0    0      0      0      0      0         0
%i    0    0    0    0      0      0      0      0         0
/* IAC                                ULTRA-RAPID PREDICTION
/* S/V CLOCKS ARE ALIGNED TO GNSS TIME                      
/* G:C1WC2W R:C1PC2P E:C1XC5X C:C2IC6I J:C1CC2S             
/* PCV:IGS14_2196 OL/AL:FES2004  NONE     YN ORB:CoN CLK:CoN
*  2022 06 17  1  0  0.00000000
PC06  -2282.603306  38820.359481 -16026.806740    204.722080
PC07  -8318.113728  25830.058293  32277.053604   -308.639275
PC08 -18913.897989  33618.754334 -17214.554291    365.566932
PC09   1287.819782  40684.930839  -9549.821365   -890.296174
PC10    600.272827  27300.280508  32436.021813    125.727431
PC11  16658.498902   7117.857056 -21179.435066    418.967438
PC12  13054.841485  23172.316134  -8446.146934   -596.967522
PC13 -13278.633097  33945.220544 -21303.243366     -1.863720
PC14  27554.203880   4162.231703   2046.973716    505.786010
PC16  -4587.231790  36861.109289 -19531.841086    139.810404
PC19 -25472.203159   2552.343621 -11051.564210    -16.622032
PC20 -25698.005722  -9225.380164   5692.975517   -962.855276
PC21  10478.574971  16251.524960 -20111.970761   -499.258877
PC22 -10465.101713  13368.519682 -22138.302804   -964.297915
PC23  15783.243823 -22546.362553  -4610.479127   -934.886856
PC24  15164.992265   7123.796665  22309.502863   -970.267406
PC25  21907.888150 -12466.891564  11948.660762   -720.820822
PC26   1066.484360  20095.606573  19338.030351    722.447755
PC27  -8293.240264 -26652.850697   -167.930507    740.123215
PC28   4548.641011 -22403.089680 -16005.582940     79.418827
PC29 -15102.353629   5031.365523  22908.015572    569.381810
PC30 -17083.486160 -15679.329077  15528.828259    499.991471
PC32 -10484.313431 -16201.956722  20169.216670   -969.023590
PC33  25521.446491  -2675.745742  11001.234112   -970.293243
PC34  17276.010590  14672.539514 -16281.033555   -379.199883
PC35  -4600.240097  21840.073956  16716.948426    324.058446
PC36 -22191.936193  11530.866950 -12354.842283   -968.470965
PC37    470.467606 -20666.686024 -18718.513190   -909.680868
PC38 -23181.857458  34061.595461  -9309.829010      3.683113
PC39  -6854.056046  33516.573087 -24511.314910     34.994977
PC40 -13954.813190  19221.717762  34806.271403    278.035462
PC41  10984.030033 -13264.505059  22012.682862     -8.013996
PC42  25303.019334   9747.355724  -6604.650109   -960.001067
PC43  15497.648422  -4249.761004 -22827.811901   -917.746711
PC44   9138.942890  26347.377999    308.695837    694.714156
PC45 -15587.157260  22627.094621   4941.428290    785.371568
PC46 -16161.239170  -5498.052839 -22074.370825   -382.966019
PE01   8478.600711  14604.731673  24312.969147   -497.581503
PE02  -8682.140817 -14520.235825 -24289.566164    306.143097
PE03 -16654.931620 -22860.061174   8708.703200   -569.573329
PE04  24862.827134  12932.283592   9545.577858  -1051.623975
PE05   1513.044767 -19534.256932  22195.186368   -171.473100
PE07 -18505.947539   4906.114593 -22560.746718   -679.085611
PE08 -24865.714087 -12727.732852  -9763.647044   -547.873351
PE09  18387.129123  -4905.104206  22685.355008   -555.992569
PE10  16678.494419  -4500.696816 -24050.326858   -520.193495
PE11  15916.395937 -15839.690821 -19311.266741   3324.690347
PE12  14923.348836   6959.789261 -24605.123271    -14.897022
PE13 -15955.011297  15172.596559  19775.575573    429.328828
PE14  -8496.524486  13810.814937  18408.377126  -1805.713232
PE15 -14806.011122  -7111.422895  24622.204260    738.941648
PE18  17531.055848 -10409.340036 -24344.418927  -1321.027185
PE19  14771.443066  23213.210567 -10903.081988  -5352.742272
PE21 -11947.067217  18306.529140  19958.820174   -740.596007
PE24  27322.101660 -11012.967721  -2802.055437   -674.757066
PE25  12238.779208 -18284.438832 -19792.408057   -577.844123
PE26  -7269.176564  28592.669409   2411.260624  -1271.151127
PE27 -26880.427433  11774.275769   3900.969334   -323.802900
PE30 -25390.672040  -2454.265969 -15031.206047   -598.526927
PE31  25857.274908   1639.880206  14323.046741   -498.396536
PE33   4938.492600  25074.081703 -14932.440698   -455.563223
PE34  -5092.223693 -24955.294772  15063.747808   -522.522693
PE36   7737.922187 -28377.589184  -3368.708712   -389.163857
PG01 -13622.206587  20190.326846   9852.756193    339.804465
PG02  15082.634700    -17.776002 -21227.301535   -652.612908
PG03 -19954.889772  12709.402983 -12066.807616   -280.834501
PG04 -10443.643680  11136.287686 -21718.495977   -156.264122
PG05  26049.927367  -5177.870684  -2261.420694    -85.801163
PG06   8257.829986  16029.386595 -19414.632951    346.672061
PG07  -4329.860532  25471.842327   5277.094420    321.631660
PG08 -16502.067856   3395.898343  20575.008817    -72.471488
PG09   -417.289859  18879.620397 -18728.736076   -327.721853
PG10  -9675.205884 -12746.546604  21395.986004   -457.748367
PG11  15280.192052   2137.322026 -21621.005147    -14.618338
PG12  22929.209304  -9752.925001  -9307.191975   -232.266658
PG13  19120.403026   7361.096101  16844.847506    331.314410
PG14   7744.817184  13959.854981  21240.307749   -111.605748
PG15  16127.078700  -5804.223133  19944.137199    -52.664209
PG16 -25932.665706  -1506.941719  -6867.049915   -509.460600
PG17  12585.973490  22580.225865   6397.943971    625.927958
PG18   5408.393906 -25527.625427   4603.609824    140.061458
PG19  17209.561880  20215.990194  -2917.877088    171.662054
PG20  22956.089962   1229.568374 -13095.331455    510.806034
PG21 -15841.642313  11346.826648  18359.246788    161.310227
PG22 -18284.818319 -18793.549732  -4372.218999    277.012456
PG23   2656.918762 -15673.232468  21249.855513    -28.406424
PG24  14277.938043 -17438.408113  13418.062167    219.079950
PG25  10641.037736 -15853.952731 -18635.381087    338.249056
PG26 -20546.192922  -6384.386733 -15858.601457    212.791059
PG27 -20987.865528  -9542.008890  13310.964196    216.054649
PG28  16263.991117  10782.797929  18421.491466    336.947232
PG29   1260.235884 -18798.883136 -18744.232478   -524.764218
PG30   2916.591267  22576.451679  13560.943465   -531.593665
PG31 -10514.086313 -13548.776693 -20291.653496   -182.099904
PG32 -15750.905697 -21170.699464   3968.620553   -153.044974
PJ02 -30990.221429  26627.649011  15247.539281     -0.751305
PJ03 -25407.400362  27097.954043  24957.251229     -2.910675
PR01 -23832.532835  -9070.051789    -28.818665     10.056743
PR02 -18336.774523   1350.637740 -17664.356677    521.517151
PR03  -2273.504756  10812.979091 -22940.284586     58.559100
PR04  14798.074459  13914.483782 -15393.159689    146.810802
PR05  23640.236377   9530.721869    660.964359     94.767831
PR07   1420.837192 -11159.852622  22938.326125     36.532270
PR08 -14898.031620 -13969.104894  15359.321132    -65.720632
PR09  20843.191742 -14134.780420   4324.071666     60.872085
PR11  -1787.436177 -12129.387197 -22357.853477     35.993882
PR12 -16791.812125   1566.011915 -19114.736021     18.890935
PR13 -20980.084759  13357.013789  -5670.306772    -23.669387
PR14 -12766.606135  17996.815502  12795.033672     25.223626
PR15   2581.507005  11704.042346  22538.248658     95.338636
PR17  -1729.533208  23231.162830  10438.008870    535.555721
PR18   5822.971772  23988.046368  -6319.814958    120.531182
PR19   9867.690788  13637.394844 -19174.758400   -192.977883
PR20   9141.825491  -8382.000532 -22297.208128    -72.760140
PR21   1115.503433 -23805.307297  -9069.141322   -310.026531
PR24  -9197.358488   9357.864481  21885.861672     99.048347
EOF
